{
	"type": "FeatureCollection",
	"name": "Kapellen_plaatsen",
	"crs": {
		"type": "name",
		"properties": {
			"name": "urn:ogc:def:crs:OGC:1.3:CRS84"
		}
	},
	"metadata": {
		"gegenereerd": "2026-08-29",
		"totaal": 91,
		"met_coordinaten": 89,
		"te_corrigeren": 27,
		"fotos_totaal": 3792,
		"fotos_onzeker": 668,
		"zekerheidsschaal": {
			"A": "Exact: geokodeerd adres of OSM-object met dezelfde naam. Gebouwniveau.",
			"B": "Straat of kruispunt vast uit een geschreven bron. Circa 50-150 m.",
			"C": "Afgeleid uit een omschrijving. Circa 200-850 m. Toon als benadering.",
			"?": "Niet gevonden. Bewust leeg gelaten."
		},
		"weergave_waarden": {
			"punt": "Gewone marker. Geen voorbehoud.",
			"punt_met_twijfel": "Gewone marker, geen cirkel, maar wel het correctiepaneel: A of B met een concreet voorbehoud.",
			"benadering": "Marker met rode cirkel van straal_m en uitroeptekenbadge (C).",
			"kandidaten": "Twee of meer holle markers, geen cirkel; laat de gebruiker kiezen.",
			"niet_geplaatst": "Geen geometrie. Alleen in het zijpaneel, niet op de kaart."
		},
		"bronnen": [
			"OpenStreetMap (ODbL)",
			"Inventaris Onroerend Erfgoed",
			"Vlaams Adressenregister",
			"gzvka.be / Heemkring Hoghescote",
			"kapellen.be"
		],
		"aangevuld": "2026-08-30 (tweede reeks: 9 plaatsen; Essenhoutstraat bleek een registerstraat en staat niet in dit bestand)"
	},
	"features": [
		{
			"type": "Feature",
			"properties": {
				"categorie": "Wijken en gehuchten",
				"plaats": "Hoogboom",
				"fotos": 349,
				"zekerheid": "A",
				"toelichting": "OSM place=hamlet. Kern rond Hoogboomsteenweg. Telling 2026-08-30: 52 foto's verloren de tag hoogboom toen 'Hoghescote' als schenker (Heemkring Hoghescote) herkend werd in plaats van als plaatsnaam.",
				"onzeker": false,
				"straal_m": 25,
				"twijfel": "",
				"onderzoek": "",
				"kandidaten": [],
				"type": "plaats",
				"alias_van": "",
				"buiten_kapellen": false,
				"weergave": "punt",
				"corrigeerbaar": false,
				"prioriteit": 0
			},
			"geometry": {
				"type": "Point",
				"coordinates": [
					4.450986,
					51.311433
				]
			}
		},
		{
			"type": "Feature",
			"properties": {
				"categorie": "Wijken en gehuchten",
				"plaats": "Kapellen",
				"fotos": 335,
				"zekerheid": "A",
				"toelichting": "OSM place=town, het centrum.",
				"onzeker": false,
				"straal_m": 25,
				"twijfel": "",
				"onderzoek": "",
				"kandidaten": [],
				"type": "plaats",
				"alias_van": "",
				"buiten_kapellen": false,
				"weergave": "punt",
				"corrigeerbaar": false,
				"prioriteit": 0
			},
			"geometry": {
				"type": "Point",
				"coordinates": [
					4.429535,
					51.314946
				]
			}
		},
		{
			"type": "Feature",
			"properties": {
				"categorie": "Wijken en gehuchten",
				"plaats": "Geuzenhoek",
				"fotos": 216,
				"zekerheid": "B",
				"toelichting": "Kruispunt Dorpsstraat / Kapelsestraat. gzvka.be: \"we nemen er dus ook de Geuzenhoek bij (al is dat al wel een stukje Kapelsestraat)\" — het is het begin van de Kapelsestraat, net voorbij het einde van de dorpskern.",
				"onzeker": false,
				"straal_m": 250,
				"twijfel": "De plaats is stevig — twee onafhankelijke gzvka-pagina's zeggen hetzelfde. De open vraag is de omvang: 216 foto's suggereert een stuk straat, geen punt.",
				"onderzoek": "Overweeg een polylijn langs het begin van de Kapelsestraat in plaats van één pin.",
				"kandidaten": [],
				"type": "plaats",
				"alias_van": "",
				"buiten_kapellen": false,
				"weergave": "punt_met_twijfel",
				"corrigeerbaar": true,
				"prioriteit": 216
			},
			"geometry": {
				"type": "Point",
				"coordinates": [
					4.426012,
					51.318616
				]
			}
		},
		{
			"type": "Feature",
			"properties": {
				"categorie": "Wijken en gehuchten",
				"plaats": "Putte-Kapellen",
				"fotos": 208,
				"zekerheid": "A",
				"toelichting": "OSM place=suburb.",
				"onzeker": false,
				"straal_m": 25,
				"twijfel": "",
				"onderzoek": "",
				"kandidaten": [],
				"type": "plaats",
				"alias_van": "",
				"buiten_kapellen": false,
				"weergave": "punt",
				"corrigeerbaar": false,
				"prioriteit": 0
			},
			"geometry": {
				"type": "Point",
				"coordinates": [
					4.401901,
					51.35364
				]
			}
		},
		{
			"type": "Feature",
			"properties": {
				"categorie": "Wijken en gehuchten",
				"plaats": "De Uitlegger",
				"fotos": 177,
				"zekerheid": "A",
				"toelichting": "OSM leisure=nature_reserve.",
				"onzeker": false,
				"straal_m": 25,
				"twijfel": "",
				"onderzoek": "",
				"kandidaten": [],
				"type": "plaats",
				"alias_van": "",
				"buiten_kapellen": false,
				"weergave": "punt",
				"corrigeerbaar": false,
				"prioriteit": 0
			},
			"geometry": {
				"type": "Point",
				"coordinates": [
					4.477242,
					51.331233
				]
			}
		},
		{
			"type": "Feature",
			"properties": {
				"categorie": "Wijken en gehuchten",
				"plaats": "Mastenbos",
				"fotos": 173,
				"zekerheid": "A",
				"toelichting": "OSM landuse=forest.",
				"onzeker": false,
				"straal_m": 25,
				"twijfel": "",
				"onderzoek": "",
				"kandidaten": [],
				"type": "plaats",
				"alias_van": "",
				"buiten_kapellen": false,
				"weergave": "punt",
				"corrigeerbaar": false,
				"prioriteit": 0
			},
			"geometry": {
				"type": "Point",
				"coordinates": [
					4.428484,
					51.338391
				]
			}
		},
		{
			"type": "Feature",
			"properties": {
				"categorie": "Wijken en gehuchten",
				"plaats": "Het Rood",
				"fotos": 159,
				"zekerheid": "A",
				"toelichting": "OSM leisure=nature_reserve (er is ook een hondenweide op 51.316622, 4.406565).",
				"onzeker": false,
				"straal_m": 25,
				"twijfel": "",
				"onderzoek": "",
				"kandidaten": [],
				"type": "plaats",
				"alias_van": "",
				"buiten_kapellen": false,
				"weergave": "punt",
				"corrigeerbaar": false,
				"prioriteit": 0
			},
			"geometry": {
				"type": "Point",
				"coordinates": [
					4.410913,
					51.316001
				]
			}
		},
		{
			"type": "Feature",
			"properties": {
				"categorie": "Wijken en gehuchten",
				"plaats": "Ertbrand",
				"fotos": 62,
				"zekerheid": "C",
				"toelichting": "Gehucht langs de Ertbrandstraat. Ankerpunt: kapel O.-L.-Vrouw Hulp der Christenen, Ertbrandstraat 295 = 51.351880, 4.397322 (A).",
				"onzeker": true,
				"straal_m": 500,
				"twijfel": "Ruw middelpunt van het gehucht langs de Ertbrandstraat. Voor een gehucht is dat de bedoelde nauwkeurigheid, niet een tekortkoming.",
				"onderzoek": "De kapel O.-L.-Vrouw Hulp der Christenen op Ertbrandstraat 295 (51.351880, 4.397322) is een hard ankerpunt als je een exacter middelpunt wil.",
				"kandidaten": [],
				"type": "plaats",
				"alias_van": "",
				"buiten_kapellen": false,
				"weergave": "benadering",
				"corrigeerbaar": true,
				"prioriteit": 62
			},
			"geometry": {
				"type": "Point",
				"coordinates": [
					4.3985,
					51.3495
				]
			}
		},
		{
			"type": "Feature",
			"properties": {
				"categorie": "Wijken en gehuchten",
				"plaats": "Kapellenbos",
				"fotos": 54,
				"zekerheid": "A",
				"toelichting": "OSM place=hamlet.",
				"onzeker": false,
				"straal_m": 25,
				"twijfel": "",
				"onderzoek": "",
				"kandidaten": [],
				"type": "plaats",
				"alias_van": "",
				"buiten_kapellen": false,
				"weergave": "punt",
				"corrigeerbaar": false,
				"prioriteit": 0
			},
			"geometry": {
				"type": "Point",
				"coordinates": [
					4.455958,
					51.350884
				]
			}
		},
		{
			"type": "Feature",
			"properties": {
				"categorie": "Wijken en gehuchten",
				"plaats": "Duitse Wijk",
				"fotos": 49,
				"zekerheid": "B",
				"toelichting": "Langs de Kalmthoutsesteenweg. gzvka.be heeft er één pagina voor: \"KALMTHOUTSESTEENWEG - DUITSE WIJK\", en linkt ernaar als \"Duitse Wijk - BASF\". Punt = Kalmthoutsesteenweg 33 (Home Flor Mielants), het ankerpunt van die pagina.",
				"onzeker": false,
				"straal_m": 600,
				"twijfel": "Het punt is Kalmthoutsesteenweg 33 — maar dat is het Dennenhuis uit 1909, dat niets met BASF te maken heeft. Ik heb dus het ankerpunt van een webpagina gebruikt als middelpunt van een wijk. De BASF-link blijft bovendien onverklaard: BASF Antwerpen opende pas in de jaren 60, dus een BASF-wijk zou naoorlogse woningbouw zijn.",
				"onderzoek": "Kijk naar de bouwstijl op de 49 foto's. Een jaren-60 verkaveling ziet er totaal anders uit dan een villawijk uit 1900 of een militaire zone. Dat pint de periode vast, en daarmee welk van de drie Duitse verhalen in Kapellen dit is (WO I-bunkerlinie, Von Mallinckrodt, of BASF).",
				"kandidaten": [],
				"type": "plaats",
				"alias_van": "",
				"buiten_kapellen": false,
				"weergave": "punt_met_twijfel",
				"corrigeerbaar": true,
				"prioriteit": 49
			},
			"geometry": {
				"type": "Point",
				"coordinates": [
					4.418791,
					51.330412
				]
			}
		},
		{
			"type": "Feature",
			"properties": {
				"categorie": "Wijken en gehuchten",
				"plaats": "De Grens",
				"fotos": 28,
				"zekerheid": "C",
				"toelichting": "De Grensstraat op de Nederlandse grens bij Putte. Kan ook de grensovergang aan de Antwerpsesteenweg zijn — laat bevestigen.",
				"onzeker": true,
				"straal_m": null,
				"twijfel": "Twee heel verschillende mogelijkheden: de Grensstraat, of de grensovergang aan de Antwerpsesteenweg bij Putte. Met 28 foto's van vermoedelijk douanekantoren en slagbomen is dat laatste minstens zo waarschijnlijk — OSM kent daar een Douaneplein.",
				"onderzoek": "Kijk of er op de foto's douanegebouwen, slagbomen of wachtende auto's staan. gzvka.be heeft pagina's 'Putte-Nederland' en 'Putte-Stabroek'.",
				"kandidaten": [
					{
						"lat": 51.359638,
						"lon": 4.411571,
						"label": "Grensstraat"
					},
					{
						"lat": 51.355641,
						"lon": 4.394371,
						"label": "Douaneplein / grensovergang"
					}
				],
				"type": "plaats",
				"alias_van": "",
				"buiten_kapellen": false,
				"weergave": "kandidaten",
				"corrigeerbaar": true,
				"prioriteit": 28
			},
			"geometry": {
				"type": "Point",
				"coordinates": [
					4.411571,
					51.359638
				]
			}
		},
		{
			"type": "Feature",
			"properties": {
				"categorie": "Wijken en gehuchten",
				"plaats": "Zilverenhoek",
				"fotos": 11,
				"zekerheid": "A",
				"toelichting": "OSM place=neighbourhood.",
				"onzeker": false,
				"straal_m": 25,
				"twijfel": "",
				"onderzoek": "",
				"kandidaten": [],
				"type": "plaats",
				"alias_van": "",
				"buiten_kapellen": false,
				"weergave": "punt",
				"corrigeerbaar": false,
				"prioriteit": 0
			},
			"geometry": {
				"type": "Point",
				"coordinates": [
					4.436589,
					51.305613
				]
			}
		},
		{
			"type": "Feature",
			"properties": {
				"categorie": "Wijken en gehuchten",
				"plaats": "Galgeveld",
				"fotos": 4,
				"zekerheid": "B",
				"toelichting": "Zijstraat aan het noordeinde van de Kapelsestraat, waar de Oude Galgenstraat en de Ertbrandstraat beginnen. gzvka.be behandelt het op \"Op weg naar Putte\" als een van de zijstraten daar. Let op: OSM kent een straat *Galgenveld* op 51.3388, 4.4020, maar die ligt in Stabroek.",
				"onzeker": false,
				"straal_m": 300,
				"twijfel": "Ligt op de gemeentegrens. Het punt is 168-289 m van een cluster OSM-straten die letterlijk Galgenveld en Klein Galgenveld heten — maar die liggen voor 91-100% in Stabroek. De buurt klopt dus, de gemeente misschien niet.",
				"onderzoek": "Hoort Galgeveld voor jullie bij Kapellen, of is het een Stabroekse wijk waar Kapellen tegenaan ligt? Een deel van de 4 foto's toont mogelijk huizen in Stabroek.",
				"kandidaten": [],
				"type": "plaats",
				"alias_van": "",
				"buiten_kapellen": false,
				"weergave": "punt_met_twijfel",
				"corrigeerbaar": true,
				"prioriteit": 4
			},
			"geometry": {
				"type": "Point",
				"coordinates": [
					4.403696,
					51.341028
				]
			}
		},
		{
			"type": "Feature",
			"properties": {
				"categorie": "Wijken en gehuchten",
				"plaats": "Industriepark",
				"fotos": 2,
				"zekerheid": "B",
				"toelichting": "Bedrijventerrein in het uiterste oosten, rond Industrielaan en Energielaan.",
				"onzeker": false,
				"straal_m": 120,
				"twijfel": "",
				"onderzoek": "",
				"kandidaten": [],
				"type": "plaats",
				"alias_van": "",
				"buiten_kapellen": false,
				"weergave": "punt",
				"corrigeerbaar": false,
				"prioriteit": 0
			},
			"geometry": {
				"type": "Point",
				"coordinates": [
					4.503536,
					51.355618
				]
			}
		},
		{
			"type": "Feature",
			"properties": {
				"categorie": "Wijken en gehuchten",
				"plaats": "Essenhout",
				"fotos": 1,
				"zekerheid": "A",
				"toelichting": "OSM place=hamlet. Onroerend Erfgoed kent hier ook \"Tuinwijk Essenhout\" (Akkerstraat 20-62, Nieuwe Wijk 1-26).",
				"onzeker": false,
				"straal_m": 25,
				"twijfel": "",
				"onderzoek": "",
				"kandidaten": [],
				"type": "plaats",
				"alias_van": "",
				"buiten_kapellen": false,
				"weergave": "punt",
				"corrigeerbaar": false,
				"prioriteit": 0
			},
			"geometry": {
				"type": "Point",
				"coordinates": [
					4.419106,
					51.308744
				]
			}
		},
		{
			"type": "Feature",
			"properties": {
				"categorie": "Kastelen en domeinen",
				"plaats": "Kasteel Irishof",
				"fotos": 144,
				"zekerheid": "A",
				"toelichting": "Kapelsestraat 37. Nu het atheneum. OSM historic=castle bevestigt op 10 m.",
				"onzeker": false,
				"straal_m": 25,
				"twijfel": "",
				"onderzoek": "",
				"kandidaten": [],
				"type": "plaats",
				"alias_van": "",
				"buiten_kapellen": false,
				"weergave": "punt",
				"corrigeerbaar": false,
				"prioriteit": 0
			},
			"geometry": {
				"type": "Point",
				"coordinates": [
					4.422461,
					51.320654
				]
			}
		},
		{
			"type": "Feature",
			"properties": {
				"categorie": "Kastelen en domeinen",
				"plaats": "Kasteel Starrenhof",
				"fotos": 80,
				"zekerheid": "A",
				"toelichting": "Kapelsestraat 61.",
				"onzeker": false,
				"straal_m": 25,
				"twijfel": "",
				"onderzoek": "",
				"kandidaten": [],
				"type": "plaats",
				"alias_van": "",
				"buiten_kapellen": false,
				"weergave": "punt",
				"corrigeerbaar": false,
				"prioriteit": 0
			},
			"geometry": {
				"type": "Point",
				"coordinates": [
					4.414876,
					51.327309
				]
			}
		},
		{
			"type": "Feature",
			"properties": {
				"categorie": "Kastelen en domeinen",
				"plaats": "Kasteel Wolvenbos",
				"fotos": 78,
				"zekerheid": "A",
				"toelichting": "Heidestraat-Zuid 107.",
				"onzeker": false,
				"straal_m": 25,
				"twijfel": "",
				"onderzoek": "",
				"kandidaten": [],
				"type": "plaats",
				"alias_van": "",
				"buiten_kapellen": false,
				"weergave": "punt",
				"corrigeerbaar": false,
				"prioriteit": 0
			},
			"geometry": {
				"type": "Point",
				"coordinates": [
					4.450823,
					51.331551
				]
			}
		},
		{
			"type": "Feature",
			"properties": {
				"categorie": "Kastelen en domeinen",
				"plaats": "Kasteel Beukenhof",
				"fotos": 54,
				"zekerheid": "A",
				"toelichting": "Christiaan Pallemansstraat 71 — het huidige gemeentehuis. Gebouwd 1827 door baron Frederik Gustave-Alexander van Haeften als *Hof Van Haeften* / *Mastbeekhof*; Nicolas de Posson kocht het later; jonkheer Johan van Vredenburch nam het over in 1920 en gaf het de naam Beukenhof. Sinds 1974 gemeentehuis, sinds 1995 alleen nog ceremonieel; de gemeenteraad vergadert er op de eerste verdieping. De Van Haeftenlaan en de van Vredenburchlaan zijn naar deze eigenaars genoemd. Onroerend Erfgoed noemt het \"Villa Van Haeften\" (id 13307).",
				"onzeker": false,
				"straal_m": 25,
				"twijfel": "",
				"onderzoek": "",
				"kandidaten": [],
				"type": "plaats",
				"alias_van": "",
				"buiten_kapellen": false,
				"weergave": "punt",
				"corrigeerbaar": false,
				"prioriteit": 0
			},
			"geometry": {
				"type": "Point",
				"coordinates": [
					4.433187,
					51.319309
				]
			}
		},
		{
			"type": "Feature",
			"properties": {
				"categorie": "Kastelen en domeinen",
				"plaats": "Kasteel Blauwhof",
				"fotos": 46,
				"zekerheid": "A",
				"toelichting": "Hoevensebaan 218-220. De speelcamere (222) en het koetshuis (214-216) staan er nog.",
				"onzeker": false,
				"straal_m": 25,
				"twijfel": "",
				"onderzoek": "",
				"kandidaten": [],
				"type": "plaats",
				"alias_van": "",
				"buiten_kapellen": false,
				"weergave": "punt",
				"corrigeerbaar": false,
				"prioriteit": 0
			},
			"geometry": {
				"type": "Point",
				"coordinates": [
					4.416337,
					51.311116
				]
			}
		},
		{
			"type": "Feature",
			"properties": {
				"categorie": "Kastelen en domeinen",
				"plaats": "Kasteel Hortensiahof",
				"fotos": 44,
				"zekerheid": "A",
				"toelichting": "Ruyseveltslei 12. Domein lag tussen Rubensheide en Koningin Astridlaan; gebouwd voor bankier Von Mallinckrodt, genoemd naar zijn vrouw Hortense.",
				"onzeker": false,
				"straal_m": 25,
				"twijfel": "",
				"onderzoek": "",
				"kandidaten": [],
				"type": "plaats",
				"alias_van": "",
				"buiten_kapellen": false,
				"weergave": "punt",
				"corrigeerbaar": false,
				"prioriteit": 0
			},
			"geometry": {
				"type": "Point",
				"coordinates": [
					4.438428,
					51.311223
				]
			}
		},
		{
			"type": "Feature",
			"properties": {
				"categorie": "Kastelen en domeinen",
				"plaats": "Kasteel Heidehof",
				"fotos": 41,
				"zekerheid": "A",
				"toelichting": "Kapelsestraat 45 — bevestigt wat het corpus al zei.",
				"onzeker": false,
				"straal_m": 25,
				"twijfel": "",
				"onderzoek": "",
				"kandidaten": [],
				"type": "plaats",
				"alias_van": "",
				"buiten_kapellen": false,
				"weergave": "punt",
				"corrigeerbaar": false,
				"prioriteit": 0
			},
			"geometry": {
				"type": "Point",
				"coordinates": [
					4.41934,
					51.323711
				]
			}
		},
		{
			"type": "Feature",
			"properties": {
				"categorie": "Kastelen en domeinen",
				"plaats": "Kasteel Op den Wal",
				"fotos": 41,
				"zekerheid": "A",
				"toelichting": "Meidoornlaan 9 — bevestigt het corpus. Onroerend Erfgoed: \"Landhuis Salons Op den Wal\", Haagdoornlaan 10 / Meidoornlaan 9.",
				"onzeker": false,
				"straal_m": 25,
				"twijfel": "",
				"onderzoek": "",
				"kandidaten": [],
				"type": "plaats",
				"alias_van": "",
				"buiten_kapellen": false,
				"weergave": "punt",
				"corrigeerbaar": false,
				"prioriteit": 0
			},
			"geometry": {
				"type": "Point",
				"coordinates": [
					4.432106,
					51.321672
				]
			}
		},
		{
			"type": "Feature",
			"properties": {
				"categorie": "Kastelen en domeinen",
				"plaats": "Kasteel Dennenburg",
				"fotos": 36,
				"zekerheid": "A",
				"toelichting": "Graaf Henri Cornetlaan 6. OSM kent het park als \"Landhuis Dennenburg\".",
				"onzeker": false,
				"straal_m": 25,
				"twijfel": "",
				"onderzoek": "",
				"kandidaten": [],
				"type": "plaats",
				"alias_van": "",
				"buiten_kapellen": false,
				"weergave": "punt",
				"corrigeerbaar": false,
				"prioriteit": 0
			},
			"geometry": {
				"type": "Point",
				"coordinates": [
					4.424963,
					51.326713
				]
			}
		},
		{
			"type": "Feature",
			"properties": {
				"categorie": "Kastelen en domeinen",
				"plaats": "Kasteel De Sterre",
				"fotos": 34,
				"zekerheid": "B",
				"toelichting": "Schuttersdreef. OSM heeft ook een gehucht \"De Sterre\" op 51.302787, 4.451600.",
				"onzeker": false,
				"straal_m": 200,
				"twijfel": "Onroerend Erfgoed geeft alleen 'Schuttersdreef', zonder huisnummer. Ik heb nr. 1 gegeokodeerd omdat ik een punt nodig had — dat nummer is dus zelf gekozen. Het ziet eruit als een geokodeerd adres maar is een gok.",
				"onderzoek": "Open fiche 13350 op inventaris.onroerenderfgoed.be; de detailpagina heeft vaak een kaartje. Of zoek op luchtfoto's waar aan de Schuttersdreef een groot gebouw met oprijlaan staat.",
				"kandidaten": [],
				"type": "plaats",
				"alias_van": "",
				"buiten_kapellen": false,
				"weergave": "punt_met_twijfel",
				"corrigeerbaar": true,
				"prioriteit": 34
			},
			"geometry": {
				"type": "Point",
				"coordinates": [
					4.452767,
					51.30189
				]
			}
		},
		{
			"type": "Feature",
			"properties": {
				"categorie": "Kastelen en domeinen",
				"plaats": "Kasteel Bunderhof",
				"fotos": 32,
				"zekerheid": "C",
				"toelichting": "Afgeleid van de Bunderbeeklaan. Gebouwd 1907 door Daniel-Jacques de Pret Roose de Calesberg, verviel na WO II. Zwakste van de kastelen — laat controleren.",
				"onzeker": true,
				"straal_m": 600,
				"twijfel": "De bron beschrijft de familiegeschiedenis maar noemt geen enkele plaats. Het punt is puur afgeleid uit de straatnaam Bunderbeeklaan, omdat daar 'Bunder' in staat.",
				"onderzoek": "Kapellen heeft ook een De Pretlaan (51.352813, 4.453873), genoemd naar de bouwersfamilie de Pret — een directere aanwijzing. Verder: Popp- en Vandermaelenkaart op geopunt.be; een kasteel uit 1907 staat op de topokaarten van voor WO II.",
				"kandidaten": [],
				"type": "plaats",
				"alias_van": "",
				"buiten_kapellen": false,
				"weergave": "benadering",
				"corrigeerbaar": true,
				"prioriteit": 32
			},
			"geometry": {
				"type": "Point",
				"coordinates": [
					4.440865,
					51.309361
				]
			}
		},
		{
			"type": "Feature",
			"properties": {
				"categorie": "Kastelen en domeinen",
				"plaats": "Kasteel Les Etangs",
				"fotos": 30,
				"zekerheid": "A",
				"toelichting": "Kapelsestraat 43 — bevestigt het corpus. = Hof ter Vijvers.",
				"onzeker": false,
				"straal_m": 25,
				"twijfel": "",
				"onderzoek": "",
				"kandidaten": [],
				"type": "plaats",
				"alias_van": "",
				"buiten_kapellen": false,
				"weergave": "punt",
				"corrigeerbaar": false,
				"prioriteit": 0
			},
			"geometry": {
				"type": "Point",
				"coordinates": [
					4.421759,
					51.32209
				]
			}
		},
		{
			"type": "Feature",
			"properties": {
				"categorie": "Kastelen en domeinen",
				"plaats": "Kasteel Beaulieu",
				"fotos": 28,
				"zekerheid": "B",
				"toelichting": "Stond aan de Dorpsstraat; volledig vernield in WO II. Het park werd het Gemeentepark. Het clubhuis van Korfbalclub Kapellen (1980) staat op de plek van het kasteel en bevat nog restanten.",
				"onzeker": false,
				"straal_m": 250,
				"twijfel": "Het punt is het middelpunt van het Gemeentepark, niet de plek van het kasteel. Het park is bijna 15 ha groot.",
				"onderzoek": "Makkelijkste correctie van de hele lijst: Korfbalclub Kapellen bouwde in 1980 een clubhuis op exact de plek van het kasteel, met restanten erin verwerkt. Zoek dat clubhuis in het Gemeentepark op een luchtfoto en lees de coördinaten af. Let op: 'Korfbal HKC' in OSM (51.313221, 4.403975) ligt 1,4 km westelijker en is vrijwel zeker een andere club.",
				"kandidaten": [],
				"type": "plaats",
				"alias_van": "",
				"buiten_kapellen": false,
				"weergave": "punt_met_twijfel",
				"corrigeerbaar": true,
				"prioriteit": 28
			},
			"geometry": {
				"type": "Point",
				"coordinates": [
					4.42319,
					51.316866
				]
			}
		},
		{
			"type": "Feature",
			"properties": {
				"categorie": "Kastelen en domeinen",
				"plaats": "Kasteel Boterberg",
				"fotos": 23,
				"zekerheid": "A",
				"toelichting": "Kapelsestraat 196.",
				"onzeker": false,
				"straal_m": 25,
				"twijfel": "",
				"onderzoek": "",
				"kandidaten": [],
				"type": "plaats",
				"alias_van": "",
				"buiten_kapellen": false,
				"weergave": "punt",
				"corrigeerbaar": false,
				"prioriteit": 0
			},
			"geometry": {
				"type": "Point",
				"coordinates": [
					4.416375,
					51.33247
				]
			}
		},
		{
			"type": "Feature",
			"properties": {
				"categorie": "Kastelen en domeinen",
				"plaats": "Kasteel Heidelust",
				"fotos": 22,
				"zekerheid": "A",
				"toelichting": "= Zilverhof. Hoogboomsteenweg 2; het poortgebouw staat er nog.",
				"onzeker": false,
				"straal_m": 25,
				"twijfel": "",
				"onderzoek": "",
				"kandidaten": [],
				"type": "plaats",
				"alias_van": "",
				"buiten_kapellen": false,
				"weergave": "punt",
				"corrigeerbaar": false,
				"prioriteit": 0
			},
			"geometry": {
				"type": "Point",
				"coordinates": [
					4.436363,
					51.303218
				]
			}
		},
		{
			"type": "Feature",
			"properties": {
				"categorie": "Kastelen en domeinen",
				"plaats": "Kasteel San Salvador",
				"fotos": 17,
				"zekerheid": "B",
				"toelichting": "Gebouwd 1900 in de Eikendreef, bereikbaar via het verlengde van de Zilverlindendreef. Afgebroken 1980; op een deel van het domein ligt nu het Nelson Mandelapark (51.310516, 4.426094).",
				"onzeker": false,
				"straal_m": 120,
				"twijfel": "",
				"onderzoek": "",
				"kandidaten": [],
				"type": "plaats",
				"alias_van": "",
				"buiten_kapellen": false,
				"weergave": "punt",
				"corrigeerbaar": false,
				"prioriteit": 0
			},
			"geometry": {
				"type": "Point",
				"coordinates": [
					4.4268,
					51.3104
				]
			}
		},
		{
			"type": "Feature",
			"properties": {
				"categorie": "Kastelen en domeinen",
				"plaats": "Kasteel Mastenhof",
				"fotos": 12,
				"zekerheid": "C",
				"toelichting": "\"Aan de noordkant van de Kalmthoutsesteenweg\", eigendom van de families van Zuylen en later Kronacker. Afgebrand 1975. De gronden zijn nu het Mastenbos.",
				"onzeker": true,
				"straal_m": 850,
				"twijfel": "De bron zegt 'aan de noordkant van de Kalmthoutsesteenweg' — dat is een strook van 1,7 km. Het punt is met de hand in het midden gezet.",
				"onderzoek": "Afgebrand in 1975, dus zichtbaar op orthofoto's van voor 1975 (geopunt.be heeft ze terug tot 1971). Zoek in het Mastenbos naar een verdwenen gebouw met oprijlaan. Agentschap Natuur en Bos beheert het gebied.",
				"kandidaten": [],
				"type": "plaats",
				"alias_van": "",
				"buiten_kapellen": false,
				"weergave": "benadering",
				"corrigeerbaar": true,
				"prioriteit": 12
			},
			"geometry": {
				"type": "Point",
				"coordinates": [
					4.432,
					51.338
				]
			}
		},
		{
			"type": "Feature",
			"properties": {
				"categorie": "Kastelen en domeinen",
				"plaats": "Kasteel Haezeldonck",
				"fotos": 11,
				"zekerheid": "A",
				"toelichting": "Lobelialaan 14.",
				"onzeker": false,
				"straal_m": 25,
				"twijfel": "",
				"onderzoek": "",
				"kandidaten": [],
				"type": "plaats",
				"alias_van": "",
				"buiten_kapellen": false,
				"weergave": "punt",
				"corrigeerbaar": false,
				"prioriteit": 0
			},
			"geometry": {
				"type": "Point",
				"coordinates": [
					4.443173,
					51.314087
				]
			}
		},
		{
			"type": "Feature",
			"properties": {
				"categorie": "Kastelen en domeinen",
				"plaats": "Kasteel Ravenhof",
				"fotos": 11,
				"zekerheid": "A",
				"toelichting": "Ligt in Putte-Stabroek, net over de gemeentegrens. Het park loopt door tot in Kapellen, en het archief heeft er foto's van, dus het staat wel op de kaart.",
				"onzeker": false,
				"straal_m": 25,
				"twijfel": "",
				"onderzoek": "",
				"kandidaten": [],
				"type": "plaats",
				"alias_van": "",
				"buiten_kapellen": true,
				"weergave": "punt",
				"corrigeerbaar": false,
				"prioriteit": 0
			},
			"geometry": {
				"type": "Point",
				"coordinates": [
					4.386062,
					51.353668
				]
			}
		},
		{
			"type": "Feature",
			"properties": {
				"categorie": "Kastelen en domeinen",
				"plaats": "Villa Rozenhof",
				"fotos": 8,
				"zekerheid": "A",
				"toelichting": "Rubensheide 120.",
				"onzeker": false,
				"straal_m": 25,
				"twijfel": "",
				"onderzoek": "",
				"kandidaten": [],
				"type": "plaats",
				"alias_van": "",
				"buiten_kapellen": false,
				"weergave": "punt",
				"corrigeerbaar": false,
				"prioriteit": 0
			},
			"geometry": {
				"type": "Point",
				"coordinates": [
					4.433695,
					51.3113
				]
			}
		},
		{
			"type": "Feature",
			"properties": {
				"categorie": "Kastelen en domeinen",
				"plaats": "Kasteel Les Chataigniers",
				"fotos": 7,
				"zekerheid": "?",
				"toelichting": "Heette oorspronkelijk \"Hof van Celst\"; via graaf Le Grelle naar de familie Speth; afgebroken en vervangen door een modern landhuis. Kapellen heeft een *Selstbaan* (51.357073, 4.419846), maar die ligt bij Putte terwijl de rest van het verhaal in het centrum speelt. Te tegenstrijdig om in te vullen.",
				"onzeker": true,
				"straal_m": null,
				"twijfel": "Twee aanwijzingen die niet samengaan. 'Hof van Celst' wijst naar de Selstbaan bij Putte; de rest van het verhaal (Le Grelle, Beaulieu, familie Speth) speelt in het centrum, waar de Speths het Irishof en Middelbeek hadden.",
				"onderzoek": "Popp- en Vandermaelenkaart op geopunt.be — zoek 'Hof van Celst' of 'Chataigniers' langs zowel de Kapelsestraat als de Selstbaan. Kapellen heeft ook een Kastanjedreef (51.301770, 4.442395); chataigniers = kastanjes.",
				"kandidaten": [
					{
						"lat": 51.357073,
						"lon": 4.419846,
						"label": "Selstbaan (naamspoor 'Hof van Celst')"
					},
					{
						"lat": 51.328915,
						"lon": 4.415347,
						"label": "Kapelsestraat (spoor familie Speth / Le Grelle)"
					}
				],
				"type": "plaats",
				"alias_van": "",
				"buiten_kapellen": false,
				"weergave": "kandidaten",
				"corrigeerbaar": true,
				"prioriteit": 7
			},
			"geometry": null
		},
		{
			"type": "Feature",
			"properties": {
				"categorie": "Kastelen en domeinen",
				"plaats": "Lusthof Hoenderhof",
				"fotos": 7,
				"zekerheid": "B",
				"toelichting": "\"Aan het Klein Heiken, toen nog grondgebied Ekeren\", vanaf 1920 café-hotel met terras, speeltuin, dieren en vijver. Punt = Hoenderhoflaan.",
				"onzeker": false,
				"straal_m": 120,
				"twijfel": "",
				"onderzoek": "",
				"kandidaten": [],
				"type": "plaats",
				"alias_van": "",
				"buiten_kapellen": false,
				"weergave": "punt",
				"corrigeerbaar": false,
				"prioriteit": 0
			},
			"geometry": {
				"type": "Point",
				"coordinates": [
					4.422002,
					51.300522
				]
			}
		},
		{
			"type": "Feature",
			"properties": {
				"categorie": "Kastelen en domeinen",
				"plaats": "Mastbeekhof",
				"fotos": 2,
				"zekerheid": "A",
				"toelichting": "Zelfde gebouw als Kasteel Beukenhof — Mastbeekhof was de naam van 1827 tot 1920. Overweeg deze twee samen te voegen of als alias te behandelen.",
				"onzeker": false,
				"straal_m": 25,
				"twijfel": "Zelfde gebouw als Kasteel Beukenhof; Mastbeekhof was de naam van 1827 tot 1920.",
				"onderzoek": "Samenvoegen of als alias behandelen, maar beide namen doorzoekbaar houden: een foto met bijschrift 'Mastbeekhof' is van voor 1920, en die datering is waardevol.",
				"kandidaten": [],
				"type": "plaats",
				"alias_van": "Kasteel Beukenhof",
				"buiten_kapellen": false,
				"weergave": "punt_met_twijfel",
				"corrigeerbaar": true,
				"prioriteit": 2
			},
			"geometry": {
				"type": "Point",
				"coordinates": [
					4.433187,
					51.319309
				]
			}
		},
		{
			"type": "Feature",
			"properties": {
				"categorie": "Kastelen en domeinen",
				"plaats": "Kattekensberg",
				"fotos": 1,
				"zekerheid": "C",
				"toelichting": "Bushalte \"Brasschaat Kattekensberg\" net over de grens; gzvka.be heeft schoolfoto's van \"Maria Immaculata op de Kattekensberg\". Ligt dus in Brasschaat, tegen Hoogboom aan — niet in Kapellen.",
				"onzeker": true,
				"straal_m": 300,
				"twijfel": "Enige sporen zijn een bushalte 'Brasschaat Kattekensberg' en gzvka-schoolfoto's van 'Maria Immaculata op de Kattekensberg'. Beide wijzen op Brasschaat, niet Kapellen.",
				"onderzoek": "Als het inderdaad in Brasschaat ligt, hoort het niet op de Kapelse kaart — net als Ravenhof.",
				"kandidaten": [],
				"type": "plaats",
				"alias_van": "",
				"buiten_kapellen": true,
				"weergave": "benadering",
				"corrigeerbaar": true,
				"prioriteit": 1
			},
			"geometry": {
				"type": "Point",
				"coordinates": [
					4.4633,
					51.296
				]
			}
		},
		{
			"type": "Feature",
			"properties": {
				"categorie": "Gebouwen, cafés, kerken en kapellen",
				"plaats": "Tajje",
				"fotos": 62,
				"zekerheid": "A",
				"toelichting": "Geen plaats maar een persoon. \"Tajje de Kotter\" was de bijnaam van Matheus Janssens; de foto's tonen de optocht door Kapellen voor zijn honderdste verjaardag op 9 juli 1976. Het punt is de Akkerstraat, waar hij werd opgehaald, maar de stoet liep verder over de Hoevensebaan naar het centrum - daarom staat hij niet op de kaart.",
				"onzeker": false,
				"straal_m": 300,
				"twijfel": "",
				"onderzoek": "",
				"kandidaten": [],
				"type": "persoon",
				"alias_van": "",
				"buiten_kapellen": false,
				"weergave": "benadering",
				"corrigeerbaar": false,
				"prioriteit": 0
			},
			"geometry": {
				"type": "Point",
				"coordinates": [
					4.424835,
					51.307914
				]
			}
		},
		{
			"type": "Feature",
			"properties": {
				"categorie": "Gebouwen, cafés, kerken en kapellen",
				"plaats": "Sint-Jozefkerk",
				"fotos": 51,
				"zekerheid": "A",
				"toelichting": "Hoogboomsteenweg 294 — bevestigt het corpus. Parochiekerk met kerkhof, Hoogboom.",
				"onzeker": false,
				"straal_m": 25,
				"twijfel": "",
				"onderzoek": "",
				"kandidaten": [],
				"type": "plaats",
				"alias_van": "",
				"buiten_kapellen": false,
				"weergave": "punt",
				"corrigeerbaar": false,
				"prioriteit": 0
			},
			"geometry": {
				"type": "Point",
				"coordinates": [
					4.46086,
					51.315863
				]
			}
		},
		{
			"type": "Feature",
			"properties": {
				"categorie": "Gebouwen, cafés, kerken en kapellen",
				"plaats": "Oud Gemeentehuis",
				"fotos": 46,
				"zekerheid": "A",
				"toelichting": "Antwerpsesteenweg 2. Nu evenementenlocatie \"'t Oud Gemeentehuis\".",
				"onzeker": false,
				"straal_m": 25,
				"twijfel": "",
				"onderzoek": "",
				"kandidaten": [],
				"type": "plaats",
				"alias_van": "",
				"buiten_kapellen": false,
				"weergave": "punt",
				"corrigeerbaar": false,
				"prioriteit": 0
			},
			"geometry": {
				"type": "Point",
				"coordinates": [
					4.429191,
					51.314692
				]
			}
		},
		{
			"type": "Feature",
			"properties": {
				"categorie": "Gebouwen, cafés, kerken en kapellen",
				"plaats": "Louwke Poep",
				"fotos": 40,
				"zekerheid": "A",
				"toelichting": "OSM historic=memorial. Monument der gesneuvelden (1926, Theo Blickx), aan het begin van de Christiaan Pallemansstraat. Officieel \"Treurende moeder\".",
				"onzeker": false,
				"straal_m": 25,
				"twijfel": "",
				"onderzoek": "",
				"kandidaten": [],
				"type": "plaats",
				"alias_van": "",
				"buiten_kapellen": false,
				"weergave": "punt",
				"corrigeerbaar": false,
				"prioriteit": 0
			},
			"geometry": {
				"type": "Point",
				"coordinates": [
					4.429616,
					51.315073
				]
			}
		},
		{
			"type": "Feature",
			"properties": {
				"categorie": "Gebouwen, cafés, kerken en kapellen",
				"plaats": "Hoogboom Kazerne",
				"fotos": 36,
				"zekerheid": "B",
				"toelichting": "= Kazerne Bauwin, waar de Spoorwegtroepen gelegerd waren. Rond Kazerneweg / Bauwinlaan; De Lijn heeft er nog een halte \"Kapellen Hoogboom Kazerne\" (51.312038, 4.451344).",
				"onzeker": false,
				"straal_m": 120,
				"twijfel": "",
				"onderzoek": "",
				"kandidaten": [],
				"type": "plaats",
				"alias_van": "",
				"buiten_kapellen": false,
				"weergave": "punt",
				"corrigeerbaar": false,
				"prioriteit": 0
			},
			"geometry": {
				"type": "Point",
				"coordinates": [
					4.4515,
					51.3113
				]
			}
		},
		{
			"type": "Feature",
			"properties": {
				"categorie": "Gebouwen, cafés, kerken en kapellen",
				"plaats": "Rustoord Welvaart",
				"fotos": 36,
				"zekerheid": "A",
				"toelichting": "OSM \"WZC Welvaart\", Hoogboom.",
				"onzeker": false,
				"straal_m": 25,
				"twijfel": "",
				"onderzoek": "",
				"kandidaten": [],
				"type": "plaats",
				"alias_van": "",
				"buiten_kapellen": false,
				"weergave": "punt",
				"corrigeerbaar": false,
				"prioriteit": 0
			},
			"geometry": {
				"type": "Point",
				"coordinates": [
					4.450705,
					51.313146
				]
			}
		},
		{
			"type": "Feature",
			"properties": {
				"categorie": "Gebouwen, cafés, kerken en kapellen",
				"plaats": "Sint-Jacobuskerk",
				"fotos": 36,
				"zekerheid": "A",
				"toelichting": "Kerkplein, centrum. Koor uit de 14de eeuw; één van de 18 Vlaamse Sint-Jacobskerken op de route naar Compostela.",
				"onzeker": false,
				"straal_m": 25,
				"twijfel": "",
				"onderzoek": "",
				"kandidaten": [],
				"type": "plaats",
				"alias_van": "",
				"buiten_kapellen": false,
				"weergave": "punt",
				"corrigeerbaar": false,
				"prioriteit": 0
			},
			"geometry": {
				"type": "Point",
				"coordinates": [
					4.426818,
					51.316398
				]
			}
		},
		{
			"type": "Feature",
			"properties": {
				"categorie": "Gebouwen, cafés, kerken en kapellen",
				"plaats": "Villa Zonnelicht",
				"fotos": 23,
				"zekerheid": "C",
				"toelichting": "\"In de Koningin Astridlaan\", tehuis voor \"zwakke\" kinderen, ingehuldigd 24 juni 1933. Huisnummer onbekend — punt = midden van de laan.",
				"onzeker": true,
				"straal_m": 550,
				"twijfel": "'In de Koningin Astridlaan', zonder huisnummer. Die laan is 1,1 km lang; het punt is het midden. Onroerend Erfgoed heeft dertien fiches in deze straat, geen enkele heet Zonnelicht.",
				"onderzoek": "Ingehuldigd op 24 juni 1933 met de Antwerpse burgemeester Camille Huysmans erbij, dus vrijwel zeker krantendekking. Zoek 'Zonnelicht' + 'Kapellen' rond die datum op belgicapress.be.",
				"kandidaten": [],
				"type": "plaats",
				"alias_van": "",
				"buiten_kapellen": false,
				"weergave": "benadering",
				"corrigeerbaar": true,
				"prioriteit": 23
			},
			"geometry": {
				"type": "Point",
				"coordinates": [
					4.441069,
					51.312114
				]
			}
		},
		{
			"type": "Feature",
			"properties": {
				"categorie": "Gebouwen, cafés, kerken en kapellen",
				"plaats": "Lievenskapel",
				"fotos": 22,
				"zekerheid": "A",
				"toelichting": "Oude Heidestraat 1.",
				"onzeker": false,
				"straal_m": 25,
				"twijfel": "",
				"onderzoek": "",
				"kandidaten": [],
				"type": "plaats",
				"alias_van": "",
				"buiten_kapellen": false,
				"weergave": "punt",
				"corrigeerbaar": false,
				"prioriteit": 0
			},
			"geometry": {
				"type": "Point",
				"coordinates": [
					4.448116,
					51.33016
				]
			}
		},
		{
			"type": "Feature",
			"properties": {
				"categorie": "Gebouwen, cafés, kerken en kapellen",
				"plaats": "Sint-Dionysiuskerk",
				"fotos": 22,
				"zekerheid": "A",
				"toelichting": "Vincent Mercierplein, Putte.",
				"onzeker": false,
				"straal_m": 25,
				"twijfel": "",
				"onderzoek": "",
				"kandidaten": [],
				"type": "plaats",
				"alias_van": "",
				"buiten_kapellen": false,
				"weergave": "punt",
				"corrigeerbaar": false,
				"prioriteit": 0
			},
			"geometry": {
				"type": "Point",
				"coordinates": [
					4.39739,
					51.353891
				]
			}
		},
		{
			"type": "Feature",
			"properties": {
				"categorie": "Gebouwen, cafés, kerken en kapellen",
				"plaats": "Hoogboomkruis",
				"fotos": 20,
				"zekerheid": "A",
				"toelichting": "Het kruispunt Hoogboomsteenweg × Antwerpsesteenweg, in de volksmond zo genoemd — geen wegkruis dus, maar een kruising. gzvka.be: \"vanaf de start aan de Antwerpsesteenweg - in de volksmond bekend als het 'Hoogboomkruis'\". Ligt 26 m van het poortgebouw Zilverhof (Hoogboomsteenweg 2), wat het punt onafhankelijk bevestigt.",
				"onzeker": false,
				"straal_m": 25,
				"twijfel": "",
				"onderzoek": "",
				"kandidaten": [],
				"type": "plaats",
				"alias_van": "",
				"buiten_kapellen": false,
				"weergave": "punt",
				"corrigeerbaar": false,
				"prioriteit": 0
			},
			"geometry": {
				"type": "Point",
				"coordinates": [
					4.436326,
					51.302988
				]
			}
		},
		{
			"type": "Feature",
			"properties": {
				"categorie": "Gebouwen, cafés, kerken en kapellen",
				"plaats": "Station Kapellen",
				"fotos": 18,
				"zekerheid": "A",
				"toelichting": "Stationsstraat 62. Oudste stationsgebouw van lijn 12 (1854).",
				"onzeker": false,
				"straal_m": 25,
				"twijfel": "",
				"onderzoek": "",
				"kandidaten": [],
				"type": "plaats",
				"alias_van": "",
				"buiten_kapellen": false,
				"weergave": "punt",
				"corrigeerbaar": false,
				"prioriteit": 0
			},
			"geometry": {
				"type": "Point",
				"coordinates": [
					4.432635,
					51.313642
				]
			}
		},
		{
			"type": "Feature",
			"properties": {
				"categorie": "Gebouwen, cafés, kerken en kapellen",
				"plaats": "Café De Pancras",
				"fotos": 17,
				"zekerheid": "B",
				"toelichting": "\"Op de hoek van het Essenhout en de Hoevensebaan\", tegenover het frituurtje op het eilandje. Worstel- en catchtempel, later danszaal en discotheek.",
				"onzeker": false,
				"straal_m": 120,
				"twijfel": "",
				"onderzoek": "",
				"kandidaten": [],
				"type": "plaats",
				"alias_van": "",
				"buiten_kapellen": false,
				"weergave": "punt",
				"corrigeerbaar": false,
				"prioriteit": 0
			},
			"geometry": {
				"type": "Point",
				"coordinates": [
					4.427822,
					51.31429
				]
			}
		},
		{
			"type": "Feature",
			"properties": {
				"categorie": "Gebouwen, cafés, kerken en kapellen",
				"plaats": "Home Flor Mielants",
				"fotos": 16,
				"zekerheid": "A",
				"toelichting": "Kalmthoutsesteenweg 33. Heette eerder \"Lindenhof\" en \"Villa Thekla\", nu \"Dennenhuis\"; in 1956 openluchtschool van de stad Antwerpen.",
				"onzeker": false,
				"straal_m": 25,
				"twijfel": "",
				"onderzoek": "",
				"kandidaten": [],
				"type": "plaats",
				"alias_van": "",
				"buiten_kapellen": false,
				"weergave": "punt",
				"corrigeerbaar": false,
				"prioriteit": 0
			},
			"geometry": {
				"type": "Point",
				"coordinates": [
					4.418791,
					51.330412
				]
			}
		},
		{
			"type": "Feature",
			"properties": {
				"categorie": "Gebouwen, cafés, kerken en kapellen",
				"plaats": "Kapel OLV van Fatima",
				"fotos": 16,
				"zekerheid": "A",
				"toelichting": "Binnenweg 63.",
				"onzeker": false,
				"straal_m": 25,
				"twijfel": "",
				"onderzoek": "",
				"kandidaten": [],
				"type": "plaats",
				"alias_van": "",
				"buiten_kapellen": false,
				"weergave": "punt",
				"corrigeerbaar": false,
				"prioriteit": 0
			},
			"geometry": {
				"type": "Point",
				"coordinates": [
					4.418057,
					51.308506
				]
			}
		},
		{
			"type": "Feature",
			"properties": {
				"categorie": "Gebouwen, cafés, kerken en kapellen",
				"plaats": "Villa Plantijn",
				"fotos": 16,
				"zekerheid": "A",
				"toelichting": "Koningin Astridlaan 5.",
				"onzeker": false,
				"straal_m": 25,
				"twijfel": "",
				"onderzoek": "",
				"kandidaten": [],
				"type": "plaats",
				"alias_van": "",
				"buiten_kapellen": false,
				"weergave": "punt",
				"corrigeerbaar": false,
				"prioriteit": 0
			},
			"geometry": {
				"type": "Point",
				"coordinates": [
					4.435097,
					51.31381
				]
			}
		},
		{
			"type": "Feature",
			"properties": {
				"categorie": "Gebouwen, cafés, kerken en kapellen",
				"plaats": "Café De Barreel",
				"fotos": 12,
				"zekerheid": "A",
				"toelichting": "OSM amenity=pub, Koning Albertlei 1.",
				"onzeker": false,
				"straal_m": 25,
				"twijfel": "",
				"onderzoek": "",
				"kandidaten": [],
				"type": "plaats",
				"alias_van": "",
				"buiten_kapellen": false,
				"weergave": "punt",
				"corrigeerbaar": false,
				"prioriteit": 0
			},
			"geometry": {
				"type": "Point",
				"coordinates": [
					4.433248,
					51.31389
				]
			}
		},
		{
			"type": "Feature",
			"properties": {
				"categorie": "Gebouwen, cafés, kerken en kapellen",
				"plaats": "Domein Middelbeek",
				"fotos": 12,
				"zekerheid": "B",
				"toelichting": "Eigendom van de familie Speth; het corpus geeft Kapelsestraat 246 (= Home Philippe Speth). Let op: er is óók een Middelbeeklaan bij Putte (51.355159, 4.414344) — twee kandidaten, laat kiezen.",
				"onzeker": false,
				"straal_m": null,
				"twijfel": "Twee kandidaten, 2,3 km uit elkaar. Ik koos Kapelsestraat 246 omdat gzvka.be Middelbeek samen met Home Philippe Speth behandelt, maar dat kan ook zijn omdat het dezelfde familie Speth is.",
				"onderzoek": "De Middelbeek is een beek. Kijk op de waterlopenkaart van geopunt.be waar die loopt. Loopt hij langs Kapelsestraat 246, dan klopt het punt; loopt hij alleen bij Putte, dan niet.",
				"kandidaten": [
					{
						"lat": 51.334728,
						"lon": 4.410825,
						"label": "Kapelsestraat 246 (Home Philippe Speth)"
					},
					{
						"lat": 51.355159,
						"lon": 4.414344,
						"label": "Middelbeeklaan, Putte"
					}
				],
				"type": "plaats",
				"alias_van": "",
				"buiten_kapellen": false,
				"weergave": "kandidaten",
				"corrigeerbaar": true,
				"prioriteit": 12
			},
			"geometry": {
				"type": "Point",
				"coordinates": [
					4.410825,
					51.334728
				]
			}
		},
		{
			"type": "Feature",
			"properties": {
				"categorie": "Gebouwen, cafés, kerken en kapellen",
				"plaats": "Kerk OLV van Vrede",
				"fotos": 12,
				"zekerheid": "A",
				"toelichting": "Kapelsestraat 182.",
				"onzeker": false,
				"straal_m": 25,
				"twijfel": "",
				"onderzoek": "",
				"kandidaten": [],
				"type": "plaats",
				"alias_van": "",
				"buiten_kapellen": false,
				"weergave": "punt",
				"corrigeerbaar": false,
				"prioriteit": 0
			},
			"geometry": {
				"type": "Point",
				"coordinates": [
					4.415288,
					51.3309
				]
			}
		},
		{
			"type": "Feature",
			"properties": {
				"categorie": "Gebouwen, cafés, kerken en kapellen",
				"plaats": "Villa De Maretak",
				"fotos": 12,
				"zekerheid": "C",
				"toelichting": "In Kapellenbos, gebouwd 1911 door architect Florent Van Reeth voor de familie Muls. Punt = Jozef Mulslaan, genoemd naar letterkundige Jozef Muls die er woonde.",
				"onzeker": true,
				"straal_m": 400,
				"twijfel": "Staat in Kapellenbos, gebouwd 1911 door architect Florent Van Reeth voor de familie Muls. Het punt is afgeleid van de Jozef Mulslaan — maar een straat die naar iemand genoemd is, ligt niet noodzakelijk waar zijn huis stond.",
				"onderzoek": "Van Reeth was een bekend architect van de Pelgrimbeweging; zijn werk is goed gedocumenteerd. Zoek 'Van Reeth' + 'Muls' + 1911, of een Onroerend Erfgoed-fiche op naam van de architect.",
				"kandidaten": [],
				"type": "plaats",
				"alias_van": "",
				"buiten_kapellen": false,
				"weergave": "benadering",
				"corrigeerbaar": true,
				"prioriteit": 12
			},
			"geometry": {
				"type": "Point",
				"coordinates": [
					4.432945,
					51.330695
				]
			}
		},
		{
			"type": "Feature",
			"properties": {
				"categorie": "Gebouwen, cafés, kerken en kapellen",
				"plaats": "Home Philippe Speth",
				"fotos": 10,
				"zekerheid": "A",
				"toelichting": "Kapelsestraat 246 — bevestigt het corpus. Zelfde domein als Middelbeek.",
				"onzeker": false,
				"straal_m": 25,
				"twijfel": "",
				"onderzoek": "",
				"kandidaten": [],
				"type": "plaats",
				"alias_van": "",
				"buiten_kapellen": false,
				"weergave": "punt",
				"corrigeerbaar": false,
				"prioriteit": 0
			},
			"geometry": {
				"type": "Point",
				"coordinates": [
					4.410825,
					51.334728
				]
			}
		},
		{
			"type": "Feature",
			"properties": {
				"categorie": "Gebouwen, cafés, kerken en kapellen",
				"plaats": "Sint-Jozefkapel",
				"fotos": 10,
				"zekerheid": "A",
				"toelichting": "OSM amenity=place_of_worship.",
				"onzeker": false,
				"straal_m": 25,
				"twijfel": "",
				"onderzoek": "",
				"kandidaten": [],
				"type": "plaats",
				"alias_van": "",
				"buiten_kapellen": false,
				"weergave": "punt",
				"corrigeerbaar": false,
				"prioriteit": 0
			},
			"geometry": {
				"type": "Point",
				"coordinates": [
					4.421749,
					51.309123
				]
			}
		},
		{
			"type": "Feature",
			"properties": {
				"categorie": "Gebouwen, cafés, kerken en kapellen",
				"plaats": "Home Kindervreugd",
				"fotos": 8,
				"zekerheid": "B",
				"toelichting": "De schoolkolonie Kindervreugd, aan de overkant van de Kalmthoutsesteenweg tegenover nr. 33. Inmiddels afgebroken. gzvka.be waarschuwt uitdrukkelijk het niet te verwarren met het Dennenhuis / Home Flor Mielants ertegenover.",
				"onzeker": false,
				"straal_m": 150,
				"twijfel": "De bron is duidelijk — 'de overkant' van Kalmthoutsesteenweg 33 — maar het coördinaat is met de hand verschoven. De afgeronde cijfers verraden dat.",
				"onderzoek": "Een luchtfoto van voor de afbraak maakt dit exact.",
				"kandidaten": [],
				"type": "plaats",
				"alias_van": "",
				"buiten_kapellen": false,
				"weergave": "punt_met_twijfel",
				"corrigeerbaar": true,
				"prioriteit": 8
			},
			"geometry": {
				"type": "Point",
				"coordinates": [
					4.4185,
					51.3305
				]
			}
		},
		{
			"type": "Feature",
			"properties": {
				"categorie": "Gebouwen, cafés, kerken en kapellen",
				"plaats": "Mulskapel",
				"fotos": 7,
				"zekerheid": "C",
				"toelichting": "Vrijwel zeker verbonden met de familie Muls in Kapellenbos (zie Villa De Maretak en de Jozef Mulslaan). Zelfde ruwe punt.",
				"onzeker": true,
				"straal_m": 500,
				"twijfel": "Gekoppeld aan de familie Muls op basis van niets anders dan de naam. Na Bunderhof de zwakste koppeling in dit bestand.",
				"onderzoek": "Eerst uitzoeken of dit überhaupt dezelfde familie Muls is, of gewoon een kapel met een toevallig gelijkende naam.",
				"kandidaten": [],
				"type": "plaats",
				"alias_van": "",
				"buiten_kapellen": false,
				"weergave": "benadering",
				"corrigeerbaar": true,
				"prioriteit": 7
			},
			"geometry": {
				"type": "Point",
				"coordinates": [
					4.432945,
					51.330695
				]
			}
		},
		{
			"type": "Feature",
			"properties": {
				"categorie": "Gebouwen, cafés, kerken en kapellen",
				"plaats": "Kapel De Heuvels",
				"fotos": 5,
				"zekerheid": "A",
				"toelichting": "Waterstraat 30. Onroerend Erfgoed: \"Kapel Onze-Lieve-Vrouw van de Heuvels\".",
				"onzeker": false,
				"straal_m": 25,
				"twijfel": "",
				"onderzoek": "",
				"kandidaten": [],
				"type": "plaats",
				"alias_van": "",
				"buiten_kapellen": false,
				"weergave": "punt",
				"corrigeerbaar": false,
				"prioriteit": 0
			},
			"geometry": {
				"type": "Point",
				"coordinates": [
					4.392065,
					51.330532
				]
			}
		},
		{
			"type": "Feature",
			"properties": {
				"categorie": "Gebouwen, cafés, kerken en kapellen",
				"plaats": "Villa Des Hirondelles",
				"fotos": 5,
				"zekerheid": "?",
				"toelichting": "Twee kandidaten, allebei op gzvka.be. Op de Hoogboomsteenweg-pagina staat \"Hoogboom - Villa des Hirondelles\"; op de Eikendreef-pagina staat \"Eikendreef - Villa Les Hirondelles\" (naast een Villa Des Bouleaux). Twee verschillende villa's, of dezelfde onder twee straten — niet uit te maken. Hoogboomsteenweg ≈ 51.311078, 4.450815, Eikendreef ≈ 51.309688, 4.427955.",
				"onzeker": true,
				"straal_m": null,
				"twijfel": "gzvka.be heeft foto's onder twee verschillende straten: 'Hoogboom - Villa des Hirondelles' en 'Eikendreef - Villa Les Hirondelles'. Des versus les, en 2 km ertussen. Eén villa verkeerd ingedeeld, of twee villa's met bijna dezelfde naam.",
				"onderzoek": "Leg de 5 archieffoto's naast de gzvka-foto's van beide pagina's. Als het één gebouw is, zie je dat meteen.",
				"kandidaten": [
					{
						"lat": 51.311078,
						"lon": 4.450815,
						"label": "Hoogboomsteenweg"
					},
					{
						"lat": 51.309688,
						"lon": 4.427955,
						"label": "Eikendreef"
					}
				],
				"type": "plaats",
				"alias_van": "",
				"buiten_kapellen": false,
				"weergave": "kandidaten",
				"corrigeerbaar": true,
				"prioriteit": 5
			},
			"geometry": null
		},
		{
			"type": "Feature",
			"properties": {
				"categorie": "Gebouwen, cafés, kerken en kapellen",
				"plaats": "OLV Onbevlekte Ontvangenis",
				"fotos": 3,
				"zekerheid": "A",
				"toelichting": "Antwerpsesteenweg 237A. Parochiekerk O.-L.-Vrouw Onbevlekt Ontvangen.",
				"onzeker": false,
				"straal_m": 25,
				"twijfel": "",
				"onderzoek": "",
				"kandidaten": [],
				"type": "plaats",
				"alias_van": "",
				"buiten_kapellen": false,
				"weergave": "punt",
				"corrigeerbaar": false,
				"prioriteit": 0
			},
			"geometry": {
				"type": "Point",
				"coordinates": [
					4.434883,
					51.305621
				]
			}
		},
		{
			"type": "Feature",
			"properties": {
				"categorie": "Gebouwen, cafés, kerken en kapellen",
				"plaats": "Casteleinhoeve",
				"fotos": 2,
				"zekerheid": "C",
				"toelichting": "Op gzvka.be alleen te zien als bijgebouw bij kasteel Mastenhof. Zelfde ruwe punt als Mastenhof.",
				"onzeker": true,
				"straal_m": 850,
				"twijfel": "Komt op gzvka.be alleen voor als bijschrift bij Mastenhof-foto's. Heeft daarom hetzelfde punt gekregen als het kasteel, terwijl een hoeve honderden meters verderop kan liggen.",
				"onderzoek": "Zelfde route als Mastenhof: orthofoto's van voor 1975.",
				"kandidaten": [],
				"type": "plaats",
				"alias_van": "",
				"buiten_kapellen": false,
				"weergave": "benadering",
				"corrigeerbaar": true,
				"prioriteit": 2
			},
			"geometry": {
				"type": "Point",
				"coordinates": [
					4.432,
					51.338
				]
			}
		},
		{
			"type": "Feature",
			"properties": {
				"categorie": "Gebouwen, cafés, kerken en kapellen",
				"plaats": "Maison La Chaine",
				"fotos": 2,
				"zekerheid": "B",
				"toelichting": "Aan de Stationsstraat; gzvka.be heeft twee foto's onder \"Stationsstraat - Maison La Chaine\", naast \"A la belle vue\". Huisnummer onbekend, punt = midden van de straat.",
				"onzeker": false,
				"straal_m": 120,
				"twijfel": "",
				"onderzoek": "",
				"kandidaten": [],
				"type": "plaats",
				"alias_van": "",
				"buiten_kapellen": false,
				"weergave": "punt",
				"corrigeerbaar": false,
				"prioriteit": 0
			},
			"geometry": {
				"type": "Point",
				"coordinates": [
					4.431551,
					51.31418
				]
			}
		},
		{
			"type": "Feature",
			"properties": {
				"categorie": "Parken",
				"plaats": "Gemeentepark Beaulieu",
				"fotos": 90,
				"zekerheid": "A",
				"toelichting": "OSM leisure=park. Het vroegere kasteelpark Beaulieu, door de gemeente gekocht. Telling 2026-08-30: twee verkeerd geklasseerde foto's ('Het Klein Bos 23', 'Ertbrandbos 2') zijn via photo-corrections.json naar hun eigen plaats verhuisd.",
				"onzeker": false,
				"straal_m": 25,
				"twijfel": "",
				"onderzoek": "",
				"kandidaten": [],
				"type": "plaats",
				"alias_van": "",
				"buiten_kapellen": false,
				"weergave": "punt",
				"corrigeerbaar": false,
				"prioriteit": 0
			},
			"geometry": {
				"type": "Point",
				"coordinates": [
					4.42319,
					51.316866
				]
			}
		},
		{
			"type": "Feature",
			"properties": {
				"categorie": "Parken",
				"plaats": "Nelson Mandelapark",
				"fotos": 18,
				"zekerheid": "A",
				"toelichting": "OSM leisure=park. Aangelegd op een braakliggend deel van het domein San Salvador; naam vastgelegd door de gemeenteraad na de actie \"Buitengewone plekjes\" (2014).",
				"onzeker": false,
				"straal_m": 25,
				"twijfel": "",
				"onderzoek": "",
				"kandidaten": [],
				"type": "plaats",
				"alias_van": "",
				"buiten_kapellen": false,
				"weergave": "punt",
				"corrigeerbaar": false,
				"prioriteit": 0
			},
			"geometry": {
				"type": "Point",
				"coordinates": [
					4.426094,
					51.310516
				]
			}
		},
		{
			"type": "Feature",
			"properties": {
				"categorie": "Parken",
				"plaats": "Poloplein",
				"fotos": 4,
				"zekerheid": "C",
				"toelichting": "Afgeleid van de Polodreef in Kapellenbos, bij de Royal Antwerp Golf Club. Kapellen heeft ook een Koerspleindreef — laat controleren.",
				"onzeker": true,
				"straal_m": null,
				"twijfel": "Afgeleid van de Polodreef bij de Royal Antwerp Golf Club. Maar gzvka.be noemt ook een Café 'Du Polo' aan de Hoogboomsteenweg, en een plein bij een café is net zo goed een Poloplein.",
				"onderzoek": "Kijk of de 4 foto's een sportveld tonen of een cafégevel. Dat scheidt de twee meteen. Kapellen heeft ook een Koerspleindreef, wat op een renbaan wijst.",
				"kandidaten": [
					{
						"lat": 51.319208,
						"lon": 4.4574,
						"label": "Polodreef, Kapellenbos"
					},
					{
						"lat": 51.311078,
						"lon": 4.450815,
						"label": "Café Du Polo, Hoogboomsteenweg"
					}
				],
				"type": "plaats",
				"alias_van": "",
				"buiten_kapellen": false,
				"weergave": "kandidaten",
				"corrigeerbaar": true,
				"prioriteit": 4
			},
			"geometry": {
				"type": "Point",
				"coordinates": [
					4.4574,
					51.319208
				]
			}
		},
		{
			"type": "Feature",
			"properties": {
				"categorie": "Parken",
				"plaats": "Erepark",
				"fotos": 3,
				"zekerheid": "A",
				"toelichting": "Het ereperk op de Gemeentelijke Begraafplaats aan de Heidestraat (OSM: \"Begraafplaats Kapellen\"). gzvka.be heeft er drie foto's van onder \"Gemeentelijke Begraafplaats - Erepark\" — precies de drie uit het archief.",
				"onzeker": false,
				"straal_m": 25,
				"twijfel": "",
				"onderzoek": "",
				"kandidaten": [],
				"type": "plaats",
				"alias_van": "",
				"buiten_kapellen": false,
				"weergave": "punt",
				"corrigeerbaar": false,
				"prioriteit": 0
			},
			"geometry": {
				"type": "Point",
				"coordinates": [
					4.443941,
					51.32641
				]
			}
		},
		{
			"type": "Feature",
			"properties": {
				"categorie": "Forten",
				"plaats": "Fort van Ertbrand",
				"fotos": 55,
				"zekerheid": "A",
				"toelichting": "OSM historic=fort. Onroerend Erfgoed situeert het aan de Oude Galgenstraat.",
				"onzeker": false,
				"straal_m": 25,
				"twijfel": "",
				"onderzoek": "",
				"kandidaten": [],
				"type": "plaats",
				"alias_van": "",
				"buiten_kapellen": false,
				"weergave": "punt",
				"corrigeerbaar": false,
				"prioriteit": 0
			},
			"geometry": {
				"type": "Point",
				"coordinates": [
					4.426051,
					51.347542
				]
			}
		},
		{
			"type": "Feature",
			"properties": {
				"categorie": "Forten",
				"plaats": "Fort van Kapellen",
				"fotos": 14,
				"zekerheid": "B",
				"toelichting": "Onroerend Erfgoed geeft Fortsteenweg; punt = midden van die straat. Het archief zegt terecht \"district bewust onbekend\" — de Spoorwegtroepen verdeelden hun activiteiten over dit fort én de kazerne in Hoogboom, wat de verwarring verklaart.",
				"onzeker": false,
				"straal_m": 120,
				"twijfel": "",
				"onderzoek": "",
				"kandidaten": [],
				"type": "plaats",
				"alias_van": "",
				"buiten_kapellen": false,
				"weergave": "punt",
				"corrigeerbaar": false,
				"prioriteit": 0
			},
			"geometry": {
				"type": "Point",
				"coordinates": [
					4.441638,
					51.320083
				]
			}
		},
		{
			"type": "Feature",
			"properties": {
				"categorie": "Pleinen",
				"plaats": "Stationsplein",
				"fotos": 7,
				"zekerheid": "C",
				"toelichting": "Geen officieel plein; het voorplein van het station aan Stationsstraat 62.",
				"onzeker": true,
				"straal_m": 150,
				"twijfel": "Geen officieel plein — staat niet in het stratenregister en niet in OSM. Afgeleid als het voorplein van het station.",
				"onderzoek": "Lage prioriteit: 7 foto's, en de redenering is plausibel.",
				"kandidaten": [],
				"type": "plaats",
				"alias_van": "",
				"buiten_kapellen": false,
				"weergave": "benadering",
				"corrigeerbaar": true,
				"prioriteit": 7
			},
			"geometry": {
				"type": "Point",
				"coordinates": [
					4.432635,
					51.313642
				]
			}
		},
		{
			"type": "Feature",
			"properties": {
				"categorie": "Pleinen",
				"plaats": "Kazerneplein",
				"fotos": 1,
				"zekerheid": "C",
				"toelichting": "Geen officieel plein; het exercitieplein van kazerne Bauwin in Hoogboom.",
				"onzeker": true,
				"straal_m": 250,
				"twijfel": "Geen officieel plein. Afgeleid als het exercitieplein van kazerne Bauwin in Hoogboom.",
				"onderzoek": "Lage prioriteit: 1 foto.",
				"kandidaten": [],
				"type": "plaats",
				"alias_van": "",
				"buiten_kapellen": false,
				"weergave": "benadering",
				"corrigeerbaar": true,
				"prioriteit": 1
			},
			"geometry": {
				"type": "Point",
				"coordinates": [
					4.4515,
					51.3113
				]
			}
		},
		{
			"type": "Feature",
			"properties": {
				"categorie": "Straten",
				"plaats": "Loopgravenpad",
				"fotos": 173,
				"zekerheid": "A",
				"toelichting": "Bestaat wél, als wandelpad (highway=path) door het Mastenbos — daarom staat het niet in het stratenregister. Er is een parking (51.335777, 4.438717) en een bushalte. Onroerend Erfgoed kent het als \"Loopgraven en bunkers in het Mastenbos\".",
				"onzeker": false,
				"straal_m": 25,
				"twijfel": "",
				"onderzoek": "",
				"kandidaten": [],
				"type": "plaats",
				"alias_van": "",
				"buiten_kapellen": false,
				"weergave": "punt",
				"corrigeerbaar": false,
				"prioriteit": 0
			},
			"geometry": {
				"type": "Point",
				"coordinates": [
					4.439819,
					51.335091
				]
			}
		},
		{
			"type": "Feature",
			"properties": {
				"categorie": "Straten",
				"plaats": "Oude Baan",
				"fotos": 7,
				"zekerheid": "A",
				"toelichting": "Oude naam van de Rubensheide — bevestigd: \"De Rubensheide - vroeger Oude Baan - is gelegen ten zuiden van de spoorlijn 12 en in het noorden van de (voormalige) wijk Hoogboom.\" Het corpus gaf zelf al \"Rubensheide (Oude Baan)\". Geen verdwenen straat, een hernoemde.",
				"onzeker": false,
				"straal_m": 25,
				"twijfel": "",
				"onderzoek": "",
				"kandidaten": [],
				"type": "hernoemde_straat",
				"alias_van": "Rubensheide",
				"buiten_kapellen": false,
				"weergave": "punt",
				"corrigeerbaar": false,
				"prioriteit": 0
			},
			"geometry": {
				"type": "Point",
				"coordinates": [
					4.43354,
					51.310502
				]
			}
		},
		{
			"type": "Feature",
			"properties": {
				"categorie": "Straten",
				"plaats": "IJzerenweglaan",
				"fotos": 5,
				"zekerheid": "A",
				"toelichting": "Opgegaan in de Koningin Astridlaan. gzvka.be: \"Voor de Koningin Astridlaan werd de oude benaming Hoogboomsteenweg en IJzerenweglaan opgeofferd\" — bij een verkaveling in 1909 op vraag van de familie De Schutter-Kennis kregen de straten achter het station koninklijke namen.",
				"onzeker": false,
				"straal_m": 25,
				"twijfel": "",
				"onderzoek": "",
				"kandidaten": [],
				"type": "hernoemde_straat",
				"alias_van": "Koningin Astridlaan",
				"buiten_kapellen": false,
				"weergave": "punt",
				"corrigeerbaar": false,
				"prioriteit": 0
			},
			"geometry": {
				"type": "Point",
				"coordinates": [
					4.441069,
					51.312114
				]
			}
		},
		{
			"type": "Feature",
			"properties": {
				"categorie": "Straten",
				"plaats": "Blokjesweg",
				"fotos": 1,
				"zekerheid": "A",
				"toelichting": "De volksnaam voor de Kalmthoutsesteenweg (N122). Het punt is de plek op de foto, aan de spoorwegovergang bij De Pretlaan.",
				"onzeker": false,
				"straal_m": 25,
				"twijfel": "",
				"onderzoek": "",
				"kandidaten": [],
				"type": "plaats",
				"alias_van": "",
				"buiten_kapellen": false,
				"weergave": "punt",
				"corrigeerbaar": false,
				"prioriteit": 0
			},
			"geometry": {
				"type": "Point",
				"coordinates": [
					4.416,
					51.328806
				]
			}
		},
		{
			"type": "Feature",
			"properties": {
				"categorie": "Straten",
				"plaats": "Denneburgdreef",
				"fotos": 1,
				"zekerheid": "A",
				"toelichting": "Bestaat, als Dennenburgdreef in het officiële register (OSM spelt het met één n). Geen verdwenen straat, gewoon een spellingsverschil.",
				"onzeker": false,
				"straal_m": 25,
				"twijfel": "",
				"onderzoek": "",
				"kandidaten": [],
				"type": "hernoemde_straat",
				"alias_van": "Dennenburgdreef",
				"buiten_kapellen": false,
				"weergave": "punt",
				"corrigeerbaar": false,
				"prioriteit": 0
			},
			"geometry": {
				"type": "Point",
				"coordinates": [
					4.42164,
					51.327591
				]
			}
		},
		{
			"type": "Feature",
			"properties": {
				"categorie": "Straten",
				"plaats": "Putsesteenweg",
				"fotos": 1,
				"zekerheid": "A",
				"toelichting": "Ligt in Kalmthout, niet in Kapellen. Punt aangewezen door de beheerder.",
				"onzeker": false,
				"straal_m": 25,
				"twijfel": "",
				"onderzoek": "",
				"kandidaten": [],
				"type": "hernoemde_straat",
				"alias_van": "",
				"buiten_kapellen": true,
				"weergave": "punt",
				"corrigeerbaar": false,
				"prioriteit": 0
			},
			"geometry": {
				"type": "Point",
				"coordinates": [
					4.447306,
					51.374778
				]
			}
		},
		{
			"type": "Feature",
			"properties": {
				"categorie": "Wijken en gehuchten",
				"plaats": "Het Klein Bos",
				"fotos": 37,
				"zekerheid": "A",
				"straal_m": 25,
				"weergave": "punt",
				"toelichting": "OSM-bos 'Het Klein Bos', tussen Wilgenstraat, Knotwilgstraat en Akkerstraat (gzvka.be). Speel- en wandelbos, watergevoelig gebied. Grenst NIET aan het Gemeentepark Beaulieu (900 m ertussen); de ene foto die daar gearchiveerd was ('Het Klein Bos 23') is op 2026-08-30 via photo-corrections.json gecorrigeerd.",
				"twijfel": "",
				"onderzoek": "",
				"kandidaten": [],
				"onzeker": false,
				"type": "plaats",
				"alias_van": "",
				"buiten_kapellen": false,
				"corrigeerbaar": false,
				"prioriteit": 0
			},
			"geometry": {
				"type": "Point",
				"coordinates": [
					4.422635,
					51.308324
				]
			}
		},
		{
			"type": "Feature",
			"properties": {
				"categorie": "Wijken en gehuchten",
				"plaats": "Ertbrandbos",
				"fotos": 30,
				"zekerheid": "A",
				"straal_m": 25,
				"weergave": "punt",
				"toelichting": "OSM-bos 'Ertbrandbos', direct naast het Fort van Ertbrand. Eigen pagina op gzvka.be.",
				"twijfel": "",
				"onderzoek": "",
				"kandidaten": [],
				"onzeker": false,
				"type": "plaats",
				"alias_van": "",
				"buiten_kapellen": false,
				"corrigeerbaar": false,
				"prioriteit": 0
			},
			"geometry": {
				"type": "Point",
				"coordinates": [
					4.426761,
					51.354123
				]
			}
		},
		{
			"type": "Feature",
			"properties": {
				"categorie": "Kastelen en domeinen",
				"plaats": "Kasteel Oude Gracht",
				"fotos": 59,
				"zekerheid": "C",
				"straal_m": 700,
				"weergave": "benadering",
				"toelichting": "Domein 'De Oude Gracht' op de grens Kapellen-Brasschaat, langs de gelijknamige weg in Hoogboom. Neorenaissancekasteel van baron Osy de Zegwaert (ca. 1880), na WO II afgebroken wegens oorlogsschade. Bebost domein met vijvers, dreven en weiland (Onroerend Erfgoed 101846/135370) - vandaar de aparte foto's van boothuis, brug en vijver. De Sint-Jozefkerk (1871) stond bij de westelijke toegang.",
				"twijfel": "De straat en het domein zijn zeker, maar de exacte plek van het afgebroken kasteel binnen het beboste domein is niet vastgesteld. Het punt is het midden van de weg Oude Gracht aan Kapelse zijde; het domein loopt door tot in Brasschaat.",
				"onderzoek": "Topografische kaarten van voor WO II tonen het kasteel nog: geopunt.be (Vandermaelen, Popp) en cartesius.be. Onroerend Erfgoed 101846 heeft de domeinbeschrijving.",
				"kandidaten": [],
				"onzeker": true,
				"type": "plaats",
				"alias_van": "",
				"buiten_kapellen": false,
				"corrigeerbaar": true,
				"prioriteit": 59
			},
			"geometry": {
				"type": "Point",
				"coordinates": [
					4.46962,
					51.323239
				]
			}
		},
		{
			"type": "Feature",
			"properties": {
				"categorie": "Kastelen en domeinen",
				"plaats": "Kasteel Pannenhuys",
				"fotos": 35,
				"zekerheid": "B",
				"straal_m": 400,
				"weergave": "benadering",
				"toelichting": "Sierlijk kasteeltje in rode baksteen aan de Heidestraat-Noord 209 (Kapellenbos), gebouwd 1907-1908, park van tuinarchitect Petry. Na WO I ook 'Ladyloan' genoemd. Eigenaars Van de Put - Paternostre de Domon. Het staat er nog: een verkoopadvertentie (Immoscoop) beschrijft 'een karaktervol kasteel uit 1907... in het hart van Kapellenbos op een domein van ca. 2,5 ha met parkzicht en vijver', en een evenementenpagina (2022) noemt het adres voluit 'Kasteel Pannenhuys, Heidestraat-Noord 209'. Onderzoek 2026-08-31: klasse C naar B - het huisnummer is nu uit twee onafhankelijke geschreven bronnen bekend; het punt is een interpolatie van nr. 209 langs de registerpolylijn, tussen de Larikslaan en de Duinendreef.",
				"twijfel": "Het huisnummer 209 is zeker, maar het punt is geinterpoleerd langs de 2,9 km lange straat, niet geokodeerd - de echte oprit kan enkele honderden meters verderop liggen. Verwar het niet met Heidestraat-ZUID 209, een gewone villa.",
				"onderzoek": "Een pin op het gebouw zelf (Geopunt/GRB of ter plaatse) maakt er klasse A van: zoek het rode bakstenen kasteeltje met vijver tussen de kruispunten Larikslaan en Duinendreef, Heidestraat-Noord 209.",
				"kandidaten": [],
				"onzeker": true,
				"type": "plaats",
				"alias_van": "",
				"buiten_kapellen": false,
				"corrigeerbaar": true,
				"prioriteit": 35
			},
			"geometry": {
				"type": "Point",
				"coordinates": [
					4.4567,
					51.3498
				]
			}
		},
		{
			"type": "Feature",
			"properties": {
				"categorie": "Kastelen en domeinen",
				"plaats": "Kasteel Larikshof",
				"fotos": 6,
				"zekerheid": "B",
				"straal_m": 80,
				"weergave": "punt_met_twijfel",
				"toelichting": "Kasteeltje in Engelse cottagestijl, 'op de hoek van de Heidestraat-Noord en de Larikslaan, nabij de grens met Kalmthout' (gzvka.be). Punt = berekend kruispunt. Afgebroken ('stond'). Map zegt kasteel, bestandsnamen zeggen villa; gzvka zegt kasteeltje.",
				"twijfel": "De hoek is expliciet benoemd, maar welk kwadrant van het kruispunt is onbekend, en het gebouw is verdwenen.",
				"onderzoek": "Luchtfoto's van voor de afbraak (geopunt.be orthofoto's, cartesius.be) tonen welk kwadrant.",
				"kandidaten": [],
				"onzeker": false,
				"type": "plaats",
				"alias_van": "",
				"buiten_kapellen": false,
				"corrigeerbaar": true,
				"prioriteit": 6
			},
			"geometry": {
				"type": "Point",
				"coordinates": [
					4.456649,
					51.348246
				]
			}
		},
		{
			"type": "Feature",
			"properties": {
				"categorie": "Kastelen en domeinen",
				"plaats": "Kasteel Ekenhof",
				"fotos": 3,
				"zekerheid": "B",
				"straal_m": 150,
				"weergave": "punt_met_twijfel",
				"toelichting": "Gebouwd 1908 door Gustave Martens; via Thornton (1928), Grisar-Good (1930), Van Damme (1946), Neuckens (1960) naar Pelckmans. Op het domein verrees het gebouw van De Nederlandsche Boekhandel / Pelckmans Uitgevers, nu CVO campus De Masten, Kapelsestraat 222A - dat adres is het punt. De archiefwaarschuwing klopt: Ekenhof en Beukenhof liggen 1,6 km uit elkaar; exact matchen.",
				"twijfel": "Het opvolgergebouw (CVO De Masten) is exact gelokaliseerd, maar het kasteel zelf kan ernaast op het domein hebben gestaan.",
				"onderzoek": "Kaart of luchtfoto van voor de bouw van het DNB-kantoor toont waar op het domein het kasteel stond.",
				"kandidaten": [],
				"onzeker": false,
				"type": "plaats",
				"alias_van": "",
				"buiten_kapellen": false,
				"corrigeerbaar": true,
				"prioriteit": 3
			},
			"geometry": {
				"type": "Point",
				"coordinates": [
					4.412458,
					51.333571
				]
			}
		},
		{
			"type": "Feature",
			"properties": {
				"categorie": "Gebouwen, cafés, kerken en kapellen",
				"plaats": "Villa Eikenhoeve",
				"fotos": 13,
				"zekerheid": "A",
				"straal_m": 25,
				"weergave": "punt",
				"toelichting": "Hoogboomsteenweg 79 (geokodeerd; Onroerend Erfgoed fiche 13337 beslecht de twijfel 77/79 uit de bestandsnamen: 79). Hoek Hoogboomsteenweg-Jagersdreef, gebouwd 1905 in cottagestijl, 1950-1960 rieten daken (gzvka.be).",
				"twijfel": "",
				"onderzoek": "",
				"kandidaten": [],
				"onzeker": false,
				"type": "plaats",
				"alias_van": "",
				"buiten_kapellen": false,
				"corrigeerbaar": false,
				"prioriteit": 0
			},
			"geometry": {
				"type": "Point",
				"coordinates": [
					4.446569,
					51.309018
				]
			}
		},
		{
			"type": "Feature",
			"properties": {
				"categorie": "Gebouwen, cafés, kerken en kapellen",
				"plaats": "Café De Vrede",
				"fotos": 9,
				"zekerheid": "B",
				"straal_m": 150,
				"weergave": "punt_met_twijfel",
				"toelichting": "Aan de Stationsstraat: drie gzvka-foto's dragen het bijschrift 'Stationsstraat - Café De Vrede' (1960, 2015, 2023). Duikt ook op in de fotoreeks van de Tajje-optocht van 1976, precies zoals het archief zei.",
				"twijfel": "Geen huisnummer; punt = midden van de Stationsstraat (260 m, dus kleine marge).",
				"onderzoek": "De gzvka-foto's van 2015/2023 suggereren dat het pand er nog staat of stond - straatbeeld vergelijken volstaat.",
				"kandidaten": [],
				"onzeker": false,
				"type": "plaats",
				"alias_van": "",
				"buiten_kapellen": false,
				"corrigeerbaar": true,
				"prioriteit": 9
			},
			"geometry": {
				"type": "Point",
				"coordinates": [
					4.431551,
					51.31418
				]
			}
		},
		{
			"type": "Feature",
			"properties": {
				"categorie": "Gebouwen, cafés, kerken en kapellen",
				"plaats": "Villa Palmaro",
				"fotos": 6,
				"zekerheid": "A",
				"straal_m": 25,
				"weergave": "punt",
				"toelichting": "'Vroeger Lindenstraat 112, later Philippe Spethstraat 112' (gzvka.be), architect Marcel Van Ginneken, buitenverblijf van de familie De Pret. Punt = geokodeerd Philippe Spethstraat 112. Let op: een van de zes foto's is een voorontwerp - mogelijk nooit zo gebouwd. Bonus-alias voor het register: Lindenstraat is de oude naam van de Philippe Spethstraat.",
				"twijfel": "",
				"onderzoek": "",
				"kandidaten": [],
				"onzeker": false,
				"type": "plaats",
				"alias_van": "",
				"buiten_kapellen": false,
				"corrigeerbaar": false,
				"prioriteit": 0
			},
			"geometry": {
				"type": "Point",
				"coordinates": [
					4.429619,
					51.321985
				]
			}
		}
	]
}
